[{"OBJECT_NAME":"OBJECT A","OBJECT_ID":"2025-197A","EPOCH":"2026-03-09T23:57:28.367136","MEAN_MOTION":15.09670549,"ECCENTRICITY":0.0013887,"INCLINATION":97.4116,"RA_OF_ASC_NODE":254.3664,"ARG_OF_PERICENTER":14.3167,"MEAN_ANOMALY":345.8453,"EPHEMERIS_TYPE":0,"CLASSIFICATION_TYPE":"U","NORAD_CAT_ID":65488,"ELEMENT_SET_NO":999,"REV_AT_EPOCH":2804,"BSTAR":0.00030852597,"MEAN_MOTION_DOT":4.917e-5,"MEAN_MOTION_DDOT":0},{"OBJECT_NAME":"CZ-6A DEB","OBJECT_ID":"2024-126C","EPOCH":"2026-03-09T22:45:09.534528","MEAN_MOTION":15.08339588,"ECCENTRICITY":0.00034995,"INCLINATION":97.8272,"RA_OF_ASC_NODE":88.0703,"ARG_OF_PERICENTER":249.9832,"MEAN_ANOMALY":110.1019,"EPHEMERIS_TYPE":0,"CLASSIFICATION_TYPE":"U","NORAD_CAT_ID":60213,"ELEMENT_SET_NO":999,"REV_AT_EPOCH":9177,"BSTAR":0.0010886629,"MEAN_MOTION_DOT":0.00016868,"MEAN_MOTION_DDOT":0}]
